OBJECT_NAME,OBJECT_ID,EPOCH,MEAN_MOTION,ECCENTRICITY,INCLINATION,RA_OF_ASC_NODE,ARG_OF_PERICENTER,MEAN_ANOMALY,EPHEMERIS_TYPE,CLASSIFICATION_TYPE,NORAD_CAT_ID,ELEMENT_SET_NO,REV_AT_EPOCH,BSTAR,MEAN_MOTION_DOT,MEAN_MOTION_DDOT
IRIDIUM 156,2018-061H,2026-07-07T00:02:06.270144,14.34218557,.0002031,86.3943,48.4417,90.2881,269.8547,0,U,43576,999,41621,.55136E-4,.174E-5,0
IRIDIUM 164,2018-061J,2026-07-07T02:55:38.372160,14.34218090,.0002287,86.3943,48.4321,89.5172,270.6286,0,U,43577,999,41627,.35037E-5,.3E-6,0
IRIDIUM 159,2018-061K,2026-07-06T16:07:10.199712,14.34219550,.0002209,86.3942,48.5570,84.2653,275.8794,0,U,43578,999,41617,.65898E-4,.204E-5,0
IRIDIUM 180,2019-002A,2026-07-06T22:48:18.902592,14.34217159,.0002218,86.3983,345.3342,91.4500,268.6950,0,U,43922,999,39182,.55134E-4,.174E-5,0
IRIDIUM 176,2019-002B,2026-07-06T22:30:14.236992,14.72241371,.0002353,86.6103,345.2808,88.6728,271.4758,0,U,43923,999,40215,.10785E-3,.704E-5,0
IRIDIUM 168,2019-002C,2026-07-06T22:39:10.645344,14.34217584,.0002228,86.3985,345.4153,90.6993,269.4458,0,U,43924,999,39180,.6336E-5,.38E-6,0
IRIDIUM 173,2019-002D,2026-07-06T22:20:54.839328,14.34217733,.0002152,86.3983,345.3087,90.5802,269.5641,0,U,43925,999,39178,.4418E-4,.144E-5,0
IRIDIUM 169,2019-002E,2026-07-07T00:08:44.092896,14.38612974,.0001693,86.4219,16.9051,95.1525,264.9867,0,U,43926,999,39307,.70386E-4,.235E-5,0
IRIDIUM 172,2019-002F,2026-07-06T22:11:46.855104,14.34217560,.0002156,86.3984,345.3199,88.1131,272.0311,0,U,43927,999,39179,.70181E-4,.216E-5,0
IRIDIUM 175,2019-002G,2026-07-06T19:44:30.290784,14.43624051,.0004758,86.4516,282.3136,132.3461,227.8144,0,U,43928,999,40181,.81705E-4,.297E-5,0
IRIDIUM 171,2019-002H,2026-07-06T21:44:22.794432,14.34218533,.0002191,86.3992,345.6358,94.8161,265.3285,0,U,43929,999,39178,.24164E-4,.87E-6,0
IRIDIUM 170,2019-002J,2026-07-06T22:39:07.604928,14.72241895,.0002363,86.6102,345.2804,85.1782,274.9705,0,U,43930,999,40216,.10825E-3,.707E-5,0
IRIDIUM 167,2019-002K,2026-07-06T21:35:14.792928,14.34218262,.0002147,86.3984,345.3526,99.4322,260.7116,0,U,43931,999,39178,.15478E-4,.63E-6,0
IRIDIUM 181,2023-068S,2026-07-07T01:45:34.816896,14.43309297,.0002475,86.4481,48.4755,85.5734,274.5749,0,U,56726,999,16530,.63804E-4,.235E-5,0
IRIDIUM 177,2023-068T,2026-07-06T22:17:02.247072,14.80019759,.0002129,86.1980,319.4173,91.4359,268.7105,0,U,56727,999,16928,.12813E-3,.995E-5,0
IRIDIUM 174,2023-068U,2026-07-06T22:21:16.632000,14.72250244,.0002122,86.6111,345.4349,81.8715,278.2742,0,U,56728,999,16892,.11324E-3,.739E-5,0
IRIDIUM 178,2023-068V,2026-07-06T22:01:08.992416,14.80023177,.0002313,86.6532,17.1131,87.0346,273.1140,0,U,56729,999,16928,.96981E-4,.759E-5,0
IRIDIUM 179,2023-068W,2026-07-06T23:30:51.174144,14.80027672,.0002264,86.6766,26.1256,90.3091,269.8390,0,U,56730,999,16929,.10874E-3,.848E-5,0
