IRIDIUM 156             
1 43576U 18061H   26188.00146146  .00000174  00000+0  55136-4 0  9993
2 43576  86.3943  48.4417 0002031  90.2881 269.8547 14.34218557416217
IRIDIUM 164             
1 43577U 18061J   26188.12197190  .00000030  00000+0  35037-5 0  9992
2 43577  86.3943  48.4321 0002287  89.5172 270.6286 14.34218090416277
IRIDIUM 159             
1 43578U 18061K   26187.67164583  .00000204  00000+0  65898-4 0  9992
2 43578  86.3942  48.5570 0002209  84.2653 275.8794 14.34219550416176
IRIDIUM 180             
1 43922U 19002A   26187.95021878  .00000174  00000+0  55134-4 0  9999
2 43922  86.3983 345.3342 0002218  91.4500 268.6950 14.34217159391821
IRIDIUM 176             
1 43923U 19002B   26187.93766478  .00000704  00000+0  10785-3 0  9991
2 43923  86.6103 345.2808 0002353  88.6728 271.4758 14.72241371402157
IRIDIUM 168             
1 43924U 19002C   26187.94387321  .00000038  00000+0  63360-5 0  9998
2 43924  86.3985 345.4153 0002228  90.6993 269.4458 14.34217584391806
IRIDIUM 173             
1 43925U 19002D   26187.93119027  .00000144  00000+0  44180-4 0  9990
2 43925  86.3983 345.3087 0002152  90.5802 269.5641 14.34217733391782
IRIDIUM 169             
1 43926U 19002E   26188.00606589  .00000235  00000+0  70386-4 0  9992
2 43926  86.4219  16.9051 0001693  95.1525 264.9867 14.38612974393073
IRIDIUM 172             
1 43927U 19002F   26187.92484786  .00000216  00000+0  70181-4 0  9998
2 43927  86.3984 345.3199 0002156  88.1131 272.0311 14.34217560391793
IRIDIUM 175             
1 43928U 19002G   26187.82257281  .00000297  00000+0  81705-4 0  9999
2 43928  86.4516 282.3136 0004758 132.3461 227.8144 14.43624051401819
IRIDIUM 171             
1 43929U 19002H   26187.90581938  .00000087  00000+0  24164-4 0  9991
2 43929  86.3992 345.6358 0002191  94.8161 265.3285 14.34218533391785
IRIDIUM 170             
1 43930U 19002J   26187.94383802  .00000707  00000+0  10825-3 0  9994
2 43930  86.6102 345.2804 0002363  85.1782 274.9705 14.72241895402165
IRIDIUM 167             
1 43931U 19002K   26187.89947677  .00000063  00000+0  15478-4 0  9990
2 43931  86.3984 345.3526 0002147  99.4322 260.7116 14.34218262391785
IRIDIUM 181             
1 56726U 23068S   26188.07331964  .00000235  00000+0  63804-4 0  9997
2 56726  86.4481  48.4755 0002475  85.5734 274.5749 14.43309297165307
IRIDIUM 177             
1 56727U 23068T   26187.92849823  .00000995  00000+0  12813-3 0  9995
2 56727  86.1980 319.4173 0002129  91.4359 268.7105 14.80019759169283
IRIDIUM 174             
1 56728U 23068U   26187.93144250  .00000739  00000+0  11324-3 0  9991
2 56728  86.6111 345.4349 0002122  81.8715 278.2742 14.72250244168921
IRIDIUM 178             
1 56729U 23068V   26187.91746519  .00000759  00000+0  96981-4 0  9991
2 56729  86.6532  17.1131 0002313  87.0346 273.1140 14.80023177169289
IRIDIUM 179             
1 56730U 23068W   26187.97975896  .00000848  00000+0  10874-3 0  9996
2 56730  86.6766  26.1256 0002264  90.3091 269.8390 14.80027672169291
